IRIDIUM 36              
1 24967U 97056C   24354.20259509  .00000782  00000+0  25569-3 0  9991
2 24967  86.3971 248.5593 0001907  84.1465 275.9950 14.37298847426366
IRIDIUM 39              
1 25042U 97069D   24354.78796041  .00001358  00000+0  35428-3 0  9995
2 25042  86.3907 288.0543 0017645 178.5882 181.5375 14.48732236423245
IRIDIUM 38              
1 25043U 97069E   24354.98441945  .00000961  00000+0  31297-3 0  9997
2 25043  86.3952 308.5725 0002147  35.5626 324.5714 14.37789389420461
IRIDIUM 42              
1 25077U 97077A   24354.35389073  .00000924  00000+0  31107-3 0  9996
2 25077  86.3956 314.7870 0002264  68.4907 291.6531 14.36048679415384
IRIDIUM 44              
1 25078U 97077B   24354.93150564  .00000910  00000+0  28341-3 0  9993
2 25078  86.3950 296.9374 0000498 112.0270 248.0982 14.39918750417933
IRIDIUM 45              
1 25104U 97082A   24354.95773847  .00020436  00000+0  91951-3 0  9998
2 25104  86.3632 134.3289 0135690 279.1999  79.3912 15.12993345425107
IRIDIUM 24              
1 25105U 97082B   24354.99484896  .00000953  00000+0  28603-3 0  9992
2 25105  86.3925 156.2618 0009992 317.8178  42.2252 14.41741554417646
IRIDIUM 51              
1 25262U 98018A   24354.51147521  .00039271  00000+0  13229-2 0  9997
2 25262  86.3911 143.7329 0114869 213.3648 146.0324 15.24376063419519
